<?xml version="1.0" encoding="UTF-8"?>
<kml xmlns="http://www.opengis.net/kml/2.2">
 <Document>
  <Placemark>
   <name>MatraterenyePetervasara</name>
   <ExtendedData>
    <Data name="name">
     <value>MatraterenyePetervasara</value>
    </Data>
   </ExtendedData>
   <LineString>
    <coordinates>19.981468,48.010074,237.75 19.981886,48.010042,240 19.982432,48.010021,241 19.982834,48.010017,241 19.984379,48.010029,241 19.985043,48.010017,243 19.985308,48.009994,243 19.985578,48.009961,244.5 19.985881,48.009912,245.25 19.986862,48.009692,246.5 19.987045,48.009654,246.25 19.987273,48.009617,246 19.987677,48.009566,246.25 19.988171,48.009521,248 19.989449,48.009405,253 19.990017,48.009314,253.25 19.990247,48.009263,253 19.990488,48.009189,253 19.990762,48.009096,254.75 19.991128,48.008959,257.5 19.99199,48.00854,265 19.992544,48.008278,266.5 19.992823,48.008186,268.75 19.994173,48.007812,279.25 19.994748,48.007625,279.75 19.996489,48.006994,277 19.996668,48.006947,277 19.996959,48.006878,276 19.997229,48.006833,274.75 19.997487,48.006812,273.5 19.997775,48.006809,272 19.998831,48.006859,268.75 19.999102,48.006849,268.75 19.999432,48.006816,269.5 19.999649,48.006782,269.75 19.99985,48.006741,269.75 20.000239,48.006621,268.5 20.000399,48.006552,267.75 20.000556,48.006474,266.75 20.001134,48.006124,261 20.001329,48.006034,260 20.001566,48.005948,260 20.003363,48.005331,251.75 20.004062,48.005096,248.5 20.004215,48.005052,248.25 20.004517,48.00501,247.25 20.004669,48.005007,246.25 20.004832,48.005017,245 20.005005,48.005041,243.5 20.005243,48.005112,242.25 20.005439,48.005202,241.25 20.005583,48.00529,240.75 20.005711,48.005406,240.5 20.005832,48.005545,240 20.005909,48.005678,239.5 20.005942,48.005827,239 20.005932,48.00597,238.25 20.005909,48.006103,237.75 20.005454,48.007661,234.25 20.005423,48.007818,232.75 20.005418,48.007937,231.25 20.005426,48.008025,230.25 20.005452,48.008114,229.5 20.005555,48.008295,229 20.005685,48.008437,228 20.005814,48.00853,227.25 20.005981,48.008625,226.75 20.007073,48.009169,224 20.008136,48.009708,223 20.008328,48.009807,222.75 20.008529,48.009913,223 20.009994,48.010646,226.5 20.011347,48.011377,233 20.013866,48.012801,239.25 20.01428,48.013007,240.75 20.014457,48.013075,241 20.014662,48.013142,240.75 20.014979,48.013228,241 20.015211,48.013272,240.5 20.015485,48.013308,241 20.015754,48.013335,242.25 20.016139,48.013346,246.25 20.01796,48.013314,248.5 20.018583,48.013292,249.75 20.01918,48.013255,252.25 20.019972,48.013176,260.5 20.020683,48.013084,261 20.020951,48.013064,259.5 20.021155,48.01306,258.75 20.02145,48.013082,258.25 20.023714,48.013432,264.75 20.024677,48.013589,271 20.025409,48.013675,275.25 20.025862,48.013714,275.75 20.02622,48.013726,274.5 20.026611,48.013717,273 20.027152,48.013697,268.75 20.027568,48.013663,265.75 20.027926,48.013623,264 20.028114,48.013583,262.25 20.02831,48.013531,260.5 20.028489,48.013465,259 20.028678,48.013378,257.25 20.029506,48.012953,255.75 20.029683,48.012878,253.75 20.029834,48.012825,251.5 20.03001,48.012776,248.75 20.030178,48.01275,247.75 20.030367,48.012736,247.25 20.030547,48.012735,247.75 20.030748,48.012747,248 20.031129,48.012798,248.5 20.031964,48.012924,251 20.032259,48.012971,250.5 20.032785,48.013021,247.75 20.033328,48.013045,246 20.035083,48.01306,238.5 20.035382,48.013074,237.75 20.035633,48.013098,238 20.035986,48.01315,237.25 20.037762,48.013436,229.75 20.038189,48.013513,227 20.038977,48.013695,222 20.039763,48.013865,223.25 20.040059,48.013917,224 20.040311,48.013946,223.75 20.040542,48.013965,223.5 20.040826,48.013979,223.25 20.041448,48.013973,222 20.041853,48.013938,221.25 20.042229,48.013895,221 20.042761,48.013821,220.25 20.045488,48.01339,214.5 20.046044,48.013311,215.5 20.046522,48.013259,215.5 20.048461,48.013114,213.75 20.04924,48.013066,212 20.049744,48.013077,212.25 20.049993,48.013096,212.25 20.050473,48.01315,210.5 20.050954,48.013219,208.75 20.051448,48.013316,207.75 20.051719,48.013383,208.5 20.052044,48.013478,208.75 20.052416,48.013607,208.25 20.052715,48.013724,207.5 20.053034,48.013859,206.75 20.055011,48.014731,203.75 20.05518,48.014798,204 20.055348,48.014857,204.25 20.055578,48.014925,205 20.055847,48.01499,205.75 20.056418,48.015096,205.25 20.061256,48.015987,215.5 20.06157,48.016059,219 20.06181,48.016124,221.5 20.061975,48.016178,223 20.062132,48.016242,224 20.062233,48.016302,225 20.062337,48.016376,225.5 20.062564,48.01656,225 20.062695,48.016646,225 20.062891,48.016739,224.25 20.063181,48.016834,222.5 20.063793,48.016994,219.25 20.064613,48.01718,219.25 20.064962,48.01724,216.75 20.065831,48.017364,209.75 20.067321,48.017543,207.25 20.067676,48.017575,206 20.068022,48.017598,204 20.069434,48.017601,198 20.069686,48.017613,198.25 20.069908,48.017642,198.5 20.070163,48.017687,199.25 20.07133,48.017948,195.5 20.071574,48.017986,195 20.071818,48.018015,194 20.072119,48.018035,192 20.07341,48.018039,188.5 20.073599,48.018022,187 20.073745,48.017998,186.5 20.073898,48.017958,185.75 20.074062,48.017904,185 20.074702,48.017643,184 20.074933,48.017565,183.75 20.075136,48.017511,183.75 20.075392,48.017472,184 20.075624,48.017459,183.75</coordinates>
   </LineString>
  </Placemark>
 </Document>
</kml>